GLOBALSTAR M057         
1 25943U 99058A   25046.92818912 -.00000013  00000+0  72658-3 0  9996
2 25943  52.0013 332.3359 0002802 117.8879 242.2254 12.24811968152075
GLOBALSTAR M059         
1 25944U 99058B   25046.91561015 -.00000076  00000+0  13014-3 0  9995
2 25944  52.0003 175.2500 0001278 101.9579  53.1765 11.99973747559481
GLOBALSTAR M056         
1 25945U 99058C   25047.07064556 -.00000130  00000+0 -49496-3 0  9997
2 25945  51.9950 179.8978 0000206  16.5982 154.3001 12.04777932148070
GLOBALSTAR M031         
1 25946U 99058D   25047.16373560 -.00000115  00000+0 -24577-3 0  9992
2 25946  51.9960  79.2221 0001046 282.9764 105.1485 12.16028682150062
GLOBALSTAR M039         
1 25961U 99062A   25046.93972426 -.00000075  00000+0  16014-3 0  9995
2 25961  51.9841 278.0142 0003586  79.2313 280.8957 12.62318519164901
GLOBALSTAR M034         
1 25962U 99062B   25046.93314905  .00000017  00000+0  15486-2 0  9994
2 25962  51.9901 326.5806 0013880 169.7940 269.4802 11.79444001124084
GLOBALSTAR M029         
1 25963U 99062C   25047.13815872 -.00000083  00000+0  35706-4 0  9990
2 25963  51.9807  62.7879 0002505 233.6447 158.9818 11.99891571154648
GLOBALSTAR M061         
1 25964U 99062D   25047.02345042 -.00000048  00000+0  53393-3 0  9998
2 25964  51.9783 148.7698 0006785 100.5590  70.0555 11.76770700107208
